NORAD_CAT_ID,OBJECT_NAME,OBJECT_TYPE,EPOCH,MEAN_MOTION,ECCENTRICITY,INCLINATION,RA_OF_ASC_NODE,ARG_OF_PERICENTER,MEAN_ANOMALY,BSTAR,MEAN_MOTION_DOT,MEAN_MOTION_DDOT,TLE_LINE0,TLE_LINE1,TLE_LINE2,SEMIMAJOR_AXIS,PERIOD,APOGEE,PERIGEE,DECAYED
53968.0,STARLINK-4629,PAYLOAD,2022-11-26 22:00:00,15.08851163,0.0001636999999999,53.2135,205.5382,59.2021,144.0359,-0.0018052,-0.00028912,0.0,0 STARLINK-4629,1 53968U 22125E   22330.91667824 -.00028912  00000-0 -18052-2 0  9998,2 53968  53.2135 205.5382 0001637  59.2021 144.0359 15.08851163  8410,6917.846,95.437,540.844,538.5790000000002,0.0
53968.0,STARLINK-4629,PAYLOAD,2022-11-27 12:00:00,15.08804171,0.0001409,53.2134,202.9179,62.3154,71.2181,0.0028998,0.00046119,0.0,0 STARLINK-4629,1 53968U 22125E   22331.50001157  .00046119  00000-0  28998-2 0  9992,2 53968  53.2134 202.9179 0001409  62.3154  71.2181 15.08804171  8504,6917.99,95.44,540.83,538.88,0.0
53968.0,STARLINK-4629,PAYLOAD,2022-11-27 14:00:01,15.088103899999998,0.0001441999999999,53.2135,202.5436,64.3832,162.0386,0.0024115,0.00038269,0.0,0 STARLINK-4629,1 53968U 22125E   22331.58334491  .00038269  00000-0  24115-2 0  9994,2 53968  53.2135 202.5436 0001442  64.3832 162.0386 15.08810390  1306,6917.971,95.439,540.8330000000002,538.8380000000002,0.0
53968.0,STARLINK-4629,PAYLOAD,2022-11-27 22:00:00,15.08833253,0.0001585999999999,53.2134,201.0489,58.3986,179.6011,-0.00048007,-7.919e-05,0.0,0 STARLINK-4629,1 53968U 22125E   22331.91667824 -.00007919  00000-0 -48007-3 0  9997,2 53968  53.2134 201.0489 0001586  58.3986 179.6011 15.08833253  1301,6917.901,95.438,540.863,538.669,0.0
53968.0,STARLINK-4629,PAYLOAD,2022-11-28 04:00:00,15.08829641,0.0001591,53.2131,199.9266,55.4337,101.2538,0.0011622,0.00018252,0.0,0 STARLINK-4629,1 53968U 22125E   22332.16667824  .00018252  00000-0  11622-2 0  9997,2 53968  53.2131 199.9266 0001591  55.4337 101.2538 15.08829641  8601,6917.9119999999975,95.438,540.878,538.6759999999998,0.0
53968.0,STARLINK-4629,PAYLOAD,2022-11-28 22:00:01,15.08848261,0.0001594,53.2132,196.5595,59.9195,212.9265,-0.00035888,-5.996e-05,0.0,0 STARLINK-4629,1 53968U 22125E   22332.91668981 -.00005996  00000-0 -35888-3 0  9999,2 53968  53.2132 196.5595 0001594  59.9195 212.9265 15.08848261  1300,6917.855,95.437,540.823,538.617,0.0
53968.0,STARLINK-4629,PAYLOAD,2022-11-29 04:00:00,15.08862403,0.0001554,53.2129,195.4372,57.032,134.4499,-0.0025152,-0.00040119,0.0,0 STARLINK-4629,1 53968U 22125E   22333.16667824 -.00040119  00000-0 -25152-2 0  9990,2 53968  53.2129 195.4372 0001554  57.0320 134.4499 15.08862403  8759,6917.812,95.436,540.752,538.602,0.0
53968.0,STARLINK-4629,PAYLOAD,2022-11-29 14:00:01,15.08817007,0.0001404,53.2132,193.5649,66.5472,229.5026,0.0020838,0.00033011,0.0,0 STARLINK-4629,1 53968U 22125E   22333.58335648  .00033011  00000-0  20838-2 0  9999,2 53968  53.2132 193.5649 0001404  66.5472 229.5026 15.08817007  1302,6917.951,95.439,540.7869999999998,538.844,0.0
53968.0,STARLINK-4629,PAYLOAD,2022-11-29 20:00:01,15.08840445,0.0001499,53.2131,192.4441,60.8856,153.7862,-0.0012134,-0.00019548,0.0,0 STARLINK-4629,1 53968U 22125E   22333.83334491 -.00019548  00000-0 -12134-2 0  9993,2 53968  53.2131 192.4441 0001499  60.8856 153.7862 15.08840445  8851,6917.879,95.438,540.781,538.707,0.0
53968.0,STARLINK-4629,PAYLOAD,2022-11-29 22:00:00,15.08830745,0.0001559,53.2131,192.0703,59.1785,248.393,1.5843e-05,-3.6e-07,0.0,0 STARLINK-4629,1 53968U 22125E   22333.91667824 -.00000036  00000-0  15843-4 0  9994,2 53968  53.2131 192.0703 0001559  59.1785 248.3930 15.08830745  1309,6917.909000000002,95.438,540.852,538.695,0.0
53968.0,STARLINK-4629,PAYLOAD,2022-11-30 12:00:00,15.08820479,0.0001436,53.2129,189.4497,65.206,172.6524,0.0027546,0.00043801,0.0,0 STARLINK-4629,1 53968U 22125E   22334.50001157  .00043801  00000-0  27546-2 0  9998,2 53968  53.2129 189.4497 0001436  65.2060 172.6524 15.08820479  8953,6917.94,95.439,540.798,538.812,0.0
53968.0,STARLINK-4629,PAYLOAD,2022-11-30 14:00:01,15.08833244,0.0001444,53.2134,189.0751,67.2276,263.5868,0.0019517,0.00030904,0.0,0 STARLINK-4629,1 53968U 22125E   22334.58335648  .00030904  00000-0  19517-2 0  9990,2 53968  53.2134 189.0751 0001444  67.2276 263.5868 15.08833244  1305,6917.901,95.438,540.765,538.7669999999998,0.0
53968.0,STARLINK-4629,PAYLOAD,2022-11-30 20:00:01,15.08876437,0.0001494,53.2147,187.9538,63.3393,186.1075,-0.0057558,-0.00090828,0.0,0 STARLINK-4629,1 53968U 22125E   22334.83334491 -.00090828  00000-0 -57558-2 0  9993,2 53968  53.2147 187.9538 0001494  63.3393 186.1075 15.08876437  9007,6917.769,95.435,540.668,538.601,0.0
53968.0,STARLINK-4629,PAYLOAD,2022-11-30 22:00:00,15.08886647,0.0001504,53.215,187.58,60.9226,281.4248,-0.0096535,-0.00150915,0.0,0 STARLINK-4629,1 53968U 22125E   22334.91667824 -.00150915  00000-0 -96535-2 0  9993,2 53968  53.2150 187.5800 0001504  60.9226 281.4248 15.08886647  1309,6917.738,95.435,540.643,538.562,0.0
53968.0,STARLINK-4629,PAYLOAD,2022-12-01 04:00:00,15.08829834,0.0001492,53.2129,186.4584,54.9373,206.0995,-0.00092163,-0.00014922,0.0,0 STARLINK-4629,1 53968U 22125E   22335.16667824 -.00014922  00000-0 -92163-3 0  9992,2 53968  53.2129 186.4584 0001492  54.9373 206.0995 15.08829834  9051,6917.911,95.438,540.809,538.744,0.0
53968.0,STARLINK-4629,PAYLOAD,2022-12-01 14:00:01,15.0882402,0.0001456,53.2133,184.5864,64.503,301.0119,0.0017878,0.00028267,0.0,0 STARLINK-4629,1 53968U 22125E   22335.58334491  .00028267  00000-0  17878-2 0  9993,2 53968  53.2133 184.5864 0001456  64.5030 301.0119 15.08824020  1309,6917.929,95.439,540.8009999999998,538.7869999999998,0.0
53968.0,STARLINK-4629,PAYLOAD,2022-12-01 20:00:01,15.08840316,0.0001579,53.2136,183.4655,58.2679,226.0005,-0.00073363,-0.00011945,0.0,0 STARLINK-4629,1 53968U 22125E   22335.83335648 -.00011945  00000-0 -73363-3 0  9995,2 53968  53.2136 183.4655 0001579  58.2679 226.0005 15.08840316  9150,6917.879,95.438,540.837,538.6519999999998,0.0
53968.0,STARLINK-4629,PAYLOAD,2022-12-01 22:00:00,15.08827634,0.0001639,53.2134,183.0917,57.1138,319.9867,0.00058743,9.07e-05,0.0,0 STARLINK-4629,1 53968U 22125E   22335.91667824  .00009070  00000-0  58743-3 0  9997,2 53968  53.2134 183.0917 0001639  57.1138 319.9867 15.08827634  1305,6917.918000000002,95.438,540.9169999999998,538.649,0.0
53968.0,STARLINK-4629,PAYLOAD,2022-12-02 14:00:01,15.08850938,0.000161,53.2136,180.097,64.7681,335.5084,-0.0016533,-0.00026512,0.0,0 STARLINK-4629,1 53968U 22125E   22336.58334491 -.00026512  00000-0 -16533-2 0  9994,2 53968  53.2136 180.0970 0001610  64.7681 335.5084 15.08850938  1307,6917.847,95.437,540.826,538.5980000000002,0.0
53968.0,STARLINK-4629,PAYLOAD,2022-12-02 22:00:00,15.08810563,0.0001825,53.2137,178.6023,59.369,352.509,0.00078293,0.00012184,0.0,0 STARLINK-4629,1 53968U 22125E   22336.91667824  .00012184  00000-0  78293-3 0  9990,2 53968  53.2137 178.6023 0001825  59.3690 352.5090 15.08810563  1304,6917.97,95.439,541.0980000000002,538.573,0.0
53968.0,STARLINK-4629,PAYLOAD,2022-12-03 06:00:00,15.08836943,0.0001744,53.2137,177.1048,61.1279,2.3141,-0.0018097,-0.00028972,0.0,0 STARLINK-4629,1 53968U 22125E   22337.25001157 -.00028972  00000-0 -18097-2 0  9998,2 53968  53.2137 177.1048 0001744  61.1279   2.3141 15.08836943  9371,6917.89,95.438,540.961,538.548,0.0
53968.0,STARLINK-4629,PAYLOAD,2022-12-03 14:00:01,15.08828156,0.0001735,53.2138,175.6078,66.5685,8.4489,0.0006327,9.793e-05,0.0,0 STARLINK-4629,1 53968U 22125E   22337.58334491  .00009793  00000-0  63270-3 0  9996,2 53968  53.2138 175.6078 0001735  66.5685   8.4489 15.08828156  1302,6917.917,95.438,540.982,538.581,0.0
53968.0,STARLINK-4629,PAYLOAD,2022-12-03 20:00:01,15.08832936,0.0001852,53.2137,174.4869,60.8197,292.887,-0.00082612,-0.00013409,0.0,0 STARLINK-4629,1 53968U 22125E   22337.83334491 -.00013409  00000-0 -82612-3 0  9996,2 53968  53.2137 174.4869 0001852  60.8197 292.8870 15.08832936  9460,6917.901999999999,95.438,541.048,538.486,0.0
53968.0,STARLINK-4629,PAYLOAD,2022-12-03 22:00:00,15.08818375,0.0001868,53.2138,174.113,59.992,26.6139,0.0011297,0.00017726,0.0,0 STARLINK-4629,1 53968U 22125E   22337.91667824  .00017726  00000-0  11297-2 0  9998,2 53968  53.2138 174.1130 0001868  59.9920  26.6139 15.08818375  1306,6917.946,95.439,541.104,538.519,0.0
53968.0,STARLINK-4629,PAYLOAD,2022-12-04 12:00:00,15.08821778,0.0001739,53.2137,171.4923,67.6864,309.1931,0.002338,0.00037099,0.0,0 STARLINK-4629,1 53968U 22125E   22338.50001157  .00037099  00000-0  23380-2 0  9996,2 53968  53.2137 171.4923 0001739  67.6864 309.1931 15.08821778  9561,6917.936,95.439,541.004,538.5980000000002,0.0
53968.0,STARLINK-4629,PAYLOAD,2022-12-04 14:00:01,15.08841258,0.0001761,53.2138,171.1184,67.6885,42.0796,0.00011757,1.584e-05,0.0,0 STARLINK-4629,1 53968U 22125E   22338.58334491  .00001584  00000-0  11757-3 0  9990,2 53968  53.2138 171.1184 0001761  67.6885  42.0796 15.08841258  1307,6917.877,95.437,540.96,538.523,0.0
53968.0,STARLINK-4629,PAYLOAD,2022-12-04 22:00:00,15.08824934,0.0001863,53.2136,169.6237,60.7342,60.6361,0.0016059999999999,0.00025354,0.0,0 STARLINK-4629,1 53968U 22125E   22338.91667824  .00025354  00000-0  16060-2 0  9998,2 53968  53.2136 169.6237 0001863  60.7342  60.6361 15.08824934  1307,6917.926,95.439,541.08,538.503,0.0
53968.0,STARLINK-4629,PAYLOAD,2022-12-05 04:00:00,15.08858116,0.0001799,53.2132,168.5004,61.9214,338.1341,-0.0020603,-0.00032945,0.0,0 STARLINK-4629,1 53968U 22125E   22339.16667824 -.00032945  00000-0 -20603-2 0  9990,2 53968  53.2132 168.5004 0001799  61.9214 338.1341 15.08858116  9669,6917.825,95.436,540.935,538.445,0.0
53968.0,STARLINK-4629,PAYLOAD,2022-12-05 12:00:00,15.08835377,0.0001736,53.2133,167.0029,69.4631,342.1984,0.0019955,0.00031609,0.0,0 STARLINK-4629,1 53968U 22125E   22339.50001157  .00031609  00000-0  19955-2 0  9991,2 53968  53.2133 167.0029 0001736  69.4631 342.1984 15.08835377  9716,6917.895,95.438,540.96,538.559,0.0
